[
    { "name": "Paris", "postal_code": "75000" },
    { "name": "Marseille", "postal_code": "13000" },
    { "name": "Lyon", "postal_code": "69000" },
    { "name": "Toulouse", "postal_code": "31000" },
    { "name": "Nice", "postal_code": "06000" },
    { "name": "Nantes", "postal_code": "44000" },
    { "name": "Strasbourg", "postal_code": "67000" },
    { "name": "Montpellier", "postal_code": "34000" },
    { "name": "Bordeaux", "postal_code": "33000" },
    { "name": "Lille", "postal_code": "59000" },
    { "name": "Rennes", "postal_code": "35000" },
    { "name": "Reims", "postal_code": "51100" },
    { "name": "Le Havre", "postal_code": "76600" },
    { "name": "Saint-Étienne", "postal_code": "42000" },
    { "name": "Toulon", "postal_code": "83000" },
    { "name": "Angers", "postal_code": "49000" },
    { "name": "Grenoble", "postal_code": "38000" },
    { "name": "Dijon", "postal_code": "21000" },
    { "name": "Nîmes", "postal_code": "30000" },
    { "name": "Aix-en-Provence", "postal_code": "13100" },
    { "name": "Saint-Quentin", "postal_code": "02100" },
    { "name": "Brest", "postal_code": "29200" },
    { "name": "Le Mans", "postal_code": "72000" },
    { "name": "Amiens", "postal_code": "80000" },
    { "name": "Tours", "postal_code": "37000" },
    { "name": "Limoges", "postal_code": "87000" },
    { "name": "Clermont-Ferrand", "postal_code": "63000" },
    { "name": "Besançon", "postal_code": "25000" },
    { "name": "Orléans", "postal_code": "45000" },
    { "name": "Metz", "postal_code": "57000" },
    { "name": "Rouen", "postal_code": "76000" },
    { "name": "Mulhouse", "postal_code": "68100" },
    { "name": "Caen", "postal_code": "14000" },
    { "name": "Nancy", "postal_code": "54000" },
    { "name": "Perpignan", "postal_code": "66000" },
    { "name": "Avignon", "postal_code": "84000" },
    { "name": "Villeurbanne", "postal_code": "69100" },
    { "name": "Pau", "postal_code": "64000" },
    { "name": "La Rochelle", "postal_code": "17000" },
    { "name": "Saint-Denis", "postal_code": "93200" },
    { "name": "Chambéry", "postal_code": "73000" },
    { "name": "Bayonne", "postal_code": "64100" }
  ]
  